FENGYUN 1C DEB          
1 30069U 99025PW  17345.69035663  .00000030  00000-0  46732-4 0  9990
2 30069  98.8932  24.8919 0048998 313.9188 164.3123 14.03127728558376
